AEROCUBE 6A             
1 40045U 14033AM  26068.93083119  .00007845  00000+0  67890-3 0  9996
2 40045  97.7128 237.0691 0038730 349.0559  10.9816 14.96848607631764
STARLINK-5876           
1 56321U 23058E   26068.98237026 -.00055192  00000+0 -38503-2 0  9998
2 56321  97.6044  71.5527 0002501 114.8065 245.3422 15.05649465157896
